OBJECT_NAME,OBJECT_ID,EPOCH,MEAN_MOTION,ECCENTRICITY,INCLINATION,RA_OF_ASC_NODE,ARG_OF_PERICENTER,MEAN_ANOMALY,EPHEMERIS_TYPE,CLASSIFICATION_TYPE,NORAD_CAT_ID,ELEMENT_SET_NO,REV_AT_EPOCH,BSTAR,MEAN_MOTION_DOT,MEAN_MOTION_DDOT
GSAT-15,2015-065A,2026-06-14T20:23:39.142176,1.00271039,.0004077,0.0762,265.6449,161.4771,235.4239,0,U,41028,999,3877,0,-.252E-5,0
BADR-7 (ARABSAT-6B),2015-065B,2026-06-14T11:31:00.200352,1.00272772,.00036691,0.0283,227.4957,333.0805,260.9471,0,U,41029,999,3874,0,.152E-5,0
LAOSAT 1,2015-067A,2026-06-14T20:33:38.185344,1.00270473,.0002174,0.0186,155.5594,238.8714,305.6468,0,U,41034,999,3883,0,-.337E-5,0
TELSTAR 12V,2015-068A,2026-06-14T19:52:48.708192,1.00271033,.0002095,0.0011,2.6045,73.8740,109.8546,0,U,41036,999,3860,0,-.113E-5,0
ELEKTRO-L 2,2015-074A,2026-06-14T01:03:32.621184,1.00270718,.00007046,6.6845,70.5612,243.9352,309.2359,0,U,41105,999,3847,0,-.114E-5,0
COSMOS 2513,2015-075A,2026-06-13T10:06:46.767168,1.00271348,.0003255,0.0796,100.5492,331.7026,61.4361,0,U,41121,999,3851,0,-.126E-5,0
EXPRESS-AMU1,2015-082A,2026-06-14T20:07:21.266112,1.00272713,.0002629,0.0187,55.0365,29.9125,156.1145,0,U,41191,999,3824,0,.161E-5,0
GAOFEN-4,2015-083A,2026-06-14T20:27:08.807328,1.00269942,.0004351,0.3502,83.8361,114.9643,116.8389,0,U,41194,999,3850,0,-.329E-5,0
BELINTERSAT-1,2016-001A,2026-06-14T20:11:43.348416,1.00268818,.0002372,0.0434,254.9358,152.2289,210.3610,0,U,41238,999,3821,0,.113E-5,0
IRNSS-1E,2016-003A,2026-06-12T15:26:18.985920,1.00267194,.00179637,33.2248,59.8162,179.0965,5.2620,0,U,41241,999,3803,0,-.313E-5,0
EUTELSAT 9B,2016-005A,2026-06-14T19:59:37.007808,1.00270599,.0001673,0.0752,74.8339,328.2834,168.8844,0,U,41310,999,3809,0,.67E-6,0
SES-9,2016-013A,2026-06-14T20:27:53.735328,1.00271977,.0002114,0.0106,340.6285,102.2309,235.5586,0,U,41380,999,3741,0,-.339E-5,0
EUTELSAT 65 WEST A,2016-014A,2026-06-14T19:38:31.100064,1.00269655,.0001981,0.0565,24.2748,49.3700,58.9031,0,U,41382,999,3750,0,-.27E-5,0
IRNSS-1F,2016-015A,2026-06-14T20:06:21.363264,1.00266184,.0017461,5.3432,96.8330,185.3925,314.9979,0,U,41384,999,3764,0,.16E-5,0
BEIDOU-2 IGSO-6,2016-021A,2026-06-14T15:02:21.911136,1.00259627,.0057107,60.2220,38.0652,231.4956,311.9910,0,U,41434,999,3745,0,-.152E-5,0
IRNSS-1G,2016-027A,2026-06-14T18:51:20.623104,1.00267255,.0007541,5.1921,97.5283,354.5074,223.4057,0,U,41469,999,3715,0,-.332E-5,0
JCSAT-2B,2016-028A,2026-06-14T18:58:19.954272,1.00269776,.0000706,0.0172,350.6556,93.8585,257.1538,0,U,41471,999,3710,0,-.16E-5,0
THAICOM 8,2016-031A,2026-06-14T20:19:24.549024,1.00269515,.0003418,0.0802,53.9459,5.2315,227.3206,0,U,41552,999,3669,0,-.115E-5,0
INTELSAT 31 (IS-31),2016-035A,2026-06-14T19:29:46.938048,1.00270405,.0001147,0.0191,270.8106,341.9012,207.7942,0,U,41581,999,3666,0,-.145E-5,0
BEIDOU-2 G7,2016-037A,2026-06-14T20:28:31.175040,1.00264841,.000676,1.7130,69.2938,3.8205,247.5929,0,U,41586,999,686,0,-.348E-5,0
ABS-2A (MONGOLSAT-1),2016-038A,2026-06-14T13:27:45.686016,1.00272423,.0001658,0.0265,346.7455,28.4057,164.3995,0,U,41588,999,3668,0,0,0
EUTELSAT 117 WEST B,2016-038B,2026-06-14T15:58:26.061024,1.00268178,.000045,0.0084,153.1562,261.4682,330.9477,0,U,41589,999,3663,0,-.5E-7,0
BRISAT,2016-039A,2026-06-14T18:57:20.048832,1.00269756,.0001834,0.0168,318.4577,123.0433,256.4154,0,U,41591,999,3658,0,-.191E-5,0
ECHOSTAR 18,2016-039B,2026-06-14T19:39:31.003776,1.00269557,.0001194,0.0172,357.7446,84.9824,53.8976,0,U,41592,999,3660,0,-.276E-5,0
MUOS-5,2016-041A,2026-06-14T16:01:33.262176,1.00271587,.0197379,2.2090,301.6126,260.8702,195.6363,0,U,41622,999,3706,0,-.117E-5,0
TIANTONG-1 1,2016-048A,2026-06-14T17:11:25.798848,1.00267580,.0005819,3.8446,43.3977,45.6961,173.1508,0,U,41725,999,3624,0,-.313E-5,0
JCSAT-16,2016-050A,2026-06-14T20:38:07.754208,1.00270017,.0000732,0.0170,355.2142,97.7680,263.6439,0,U,41729,999,3604,0,-.246E-5,0
USA 270,2016-052A,2026-06-11T08:15:58.536000,1.00285262,.0008524,4.1835,77.2658,338.7721,152.1702,0,U,41744,999,2807,0,.96E-6,0
USA 271,2016-052B,2026-06-11T06:58:56.063424,1.00260351,.0010788,4.1546,77.3359,156.7037,252.9173,0,U,41745,999,2786,0,-.344E-5,0
INTELSAT 36 (IS-36),2016-053A,2026-06-14T20:16:32.322720,1.00271558,.0002012,0.0108,2.9558,327.1608,305.6539,0,U,41747,999,3593,0,-.19E-6,0
INSAT-3DR,2016-054A,2026-06-14T20:18:09.667872,1.00270793,.0010636,0.1003,86.6948,187.2026,7.7579,0,U,41752,999,3579,0,-.71E-6,0
GSAT-18,2016-060A,2026-06-14T20:18:09.667872,1.00270763,.0005438,0.0558,101.6423,330.6601,209.3581,0,U,41793,999,3550,0,-.71E-6,0
