GSAT-15                 
1 41028U 15065A   26165.84975859 -.00000252  00000+0  00000+0 0  9995
2 41028   0.0762 265.6449 0004077 161.4771 235.4239  1.00271039 38779
BADR-7 (ARABSAT-6B)     
1 41029U 15065B   26165.47986343  .00000152  00000+0  00000+0 0  9993
2 41029   0.0283 227.4957 0003669 333.0805 260.9471  1.00272772 38742
LAOSAT 1                
1 41034U 15067A   26165.85669196 -.00000337  00000+0  00000+0 0  9993
2 41034   0.0186 155.5594 0002174 238.8714 305.6468  1.00270473 38838
TELSTAR 12V             
1 41036U 15068A   26165.82834153 -.00000113  00000+0  00000+0 0  9992
2 41036   0.0011   2.6045 0002095  73.8740 109.8546  1.00271033 38607
ELEKTRO-L 2             
1 41105U 15074A   26165.04412756 -.00000114  00000+0  00000+0 0  9992
2 41105   6.6845  70.5612 0000704 243.9352 309.2359  1.00270718 38471
COSMOS 2513             
1 41121U 15075A   26164.42137462 -.00000126  00000+0  00000+0 0  9993
2 41121   0.0796 100.5492 0003255 331.7026  61.4361  1.00271348 38515
EXPRESS-AMU1            
1 41191U 15082A   26165.83844058  .00000161  00000+0  00000+0 0  9998
2 41191   0.0187  55.0365 0002629  29.9125 156.1145  1.00272713 38248
GAOFEN-4                
1 41194U 15083A   26165.85218527 -.00000329  00000+0  00000+0 0  9997
2 41194   0.3502  83.8361 0004351 114.9643 116.8389  1.00269942 38506
BELINTERSAT-1           
1 41238U 16001A   26165.84147394  .00000113  00000+0  00000+0 0  9999
2 41238   0.0434 254.9358 0002372 152.2289 210.3610  1.00268818 38211
IRNSS-1E                
1 41241U 16003A   26163.64327530 -.00000313  00000+0  00000+0 0  9996
2 41241  33.2248  59.8162 0017963 179.0965   5.2620  1.00267194 38039
EUTELSAT 9B             
1 41310U 16005A   26165.83306722  .00000067  00000+0  00000+0 0  9993
2 41310   0.0752  74.8339 0001673 328.2834 168.8844  1.00270599 38098
SES-9                   
1 41380U 16013A   26165.85270527 -.00000339  00000+0  00000+0 0  9997
2 41380   0.0106 340.6285 0002114 102.2309 235.5586  1.00271977 37411
EUTELSAT 65 WEST A      
1 41382U 16014A   26165.81841551 -.00000270  00000+0  00000+0 0  9991
2 41382   0.0565  24.2748 0001981  49.3700  58.9031  1.00269655 37500
IRNSS-1F                
1 41384U 16015A   26165.83774726  .00000160  00000+0  00000+0 0  9992
2 41384   5.3432  96.8330 0017461 185.3925 314.9979  1.00266184 37640
BEIDOU-2 IGSO-6         
1 41434U 16021A   26165.62664249 -.00000152  00000+0  00000+0 0  9992
2 41434  60.2220  38.0652 0057107 231.4956 311.9910  1.00259627 37459
IRNSS-1G                
1 41469U 16027A   26165.78565536 -.00000332  00000+0  00000+0 0  9992
2 41469   5.1921  97.5283 0007541 354.5074 223.4057  1.00267255 37150
JCSAT-2B                
1 41471U 16028A   26165.79050873 -.00000160  00000+0  00000+0 0  9999
2 41471   0.0172 350.6556 0000706  93.8585 257.1538  1.00269776 37100
THAICOM 8               
1 41552U 16031A   26165.84681191 -.00000115  00000+0  00000+0 0  9992
2 41552   0.0802  53.9459 0003418   5.2315 227.3206  1.00269515 36691
INTELSAT 31 (IS-31)     
1 41581U 16035A   26165.81234882 -.00000145  00000+0  00000+0 0  9999
2 41581   0.0191 270.8106 0001147 341.9012 207.7942  1.00270405 36660
BEIDOU-2 G7             
1 41586U 16037A   26165.85313860 -.00000348  00000+0  00000+0 0  9999
2 41586   1.7130  69.2938 0006760   3.8205 247.5929  1.00264841  6866
ABS-2A (MONGOLSAT-1)    
1 41588U 16038A   26165.56094544  .00000000  00000+0  00000+0 0  9999
2 41588   0.0265 346.7455 0001658  28.4057 164.3995  1.00272423 36682
EUTELSAT 117 WEST B     
1 41589U 16038B   26165.66557941 -.00000005  00000+0  00000+0 0  9992
2 41589   0.0084 153.1562 0000450 261.4682 330.9477  1.00268178 36636
BRISAT                  
1 41591U 16039A   26165.78981538 -.00000191  00000+0  00000+0 0  9998
2 41591   0.0168 318.4577 0001834 123.0433 256.4154  1.00269756 36589
ECHOSTAR 18             
1 41592U 16039B   26165.81910884 -.00000276  00000+0  00000+0 0  9993
2 41592   0.0172 357.7446 0001194  84.9824  53.8976  1.00269557 36607
MUOS-5                  
1 41622U 16041A   26165.66774609 -.00000117  00000+0  00000+0 0  9990
2 41622   2.2090 301.6126 0197379 260.8702 195.6363  1.00271587 37060
TIANTONG-1 1            
1 41725U 16048A   26165.71627082 -.00000313  00000+0  00000+0 0  9997
2 41725   3.8446  43.3977 0005819  45.6961 173.1508  1.00267580 36242
JCSAT-16                
1 41729U 16050A   26165.85981197 -.00000246  00000+0  00000+0 0  9994
2 41729   0.0170 355.2142 0000732  97.7680 263.6439  1.00270017 36048
USA 270                 
1 41744U 16052A   26162.34442750  .00000096  00000+0  00000+0 0  9993
2 41744   4.1835  77.2658 0008524 338.7721 152.1702  1.00285262 28079
USA 271                 
1 41745U 16052B   26162.29092666 -.00000344  00000+0  00000+0 0  9992
2 41745   4.1546  77.3359 0010788 156.7037 252.9173  1.00260351 27860
INTELSAT 36 (IS-36)     
1 41747U 16053A   26165.84481855 -.00000019  00000+0  00000+0 0  9990
2 41747   0.0108   2.9558 0002012 327.1608 305.6539  1.00271558 35935
INSAT-3DR               
1 41752U 16054A   26165.84594523 -.00000071  00000+0  00000+0 0  9992
2 41752   0.1003  86.6948 0010636 187.2026   7.7579  1.00270793 35796
GSAT-18                 
1 41793U 16060A   26165.84594523 -.00000071  00000+0  00000+0 0  9994
2 41793   0.0558 101.6423 0005438 330.6601 209.3581  1.00270763 35507
